{"type":"FeatureCollection","features":[{"type":"Feature","properties":{"nama":"Universitas Logistik dan Bisnis Internasional","tipe":"Kampus"},"geometry":{"type":"Polygon","coordinates":[[[107.575499,-6.872601],[107.575453,-6.873013],[107.575837,-6.873056],[107.575882,-6.872601],[107.575661,-6.872571],[107.575509,-6.872553],[107.575499,-6.872601]]]}},{"type":"Feature","properties":{"nama":"Logic Coffee","tipe":"Cafe"},"geometry":{"type":"Polygon","coordinates":[[[107.57525,-6.873222],[107.575241,-6.87328],[107.575239,-6.873399],[107.575228,-6.873586],[107.575786,-6.87363],[107.575805,-6.87325],[107.575761,-6.87325],[107.575558,-6.87325],[107.57525,-6.873222]]]}},{"type":"Feature","properties":{},"geometry":{"type":"Polygon","coordinates":[[[107.576028,-6.873276],[107.575977,-6.873648],[107.576224,-6.873699],[107.576267,-6.873472],[107.576319,-6.873331],[107.576227,-6.87332],[107.576028,-6.873276]]]}}]}